[{"OBJECT_NAME":"STARLINK-5575","OBJECT_ID":"2023-013BC","EPOCH":"2026-03-09T02:07:25.944672","MEAN_MOTION":15.02541576,"ECCENTRICITY":0.00011674,"INCLINATION":43.0038,"RA_OF_ASC_NODE":316.1871,"ARG_OF_PERICENTER":268.0665,"MEAN_ANOMALY":92.0044,"EPHEMERIS_TYPE":0,"CLASSIFICATION_TYPE":"U","NORAD_CAT_ID":55381,"ELEMENT_SET_NO":999,"REV_AT_EPOCH":17147,"BSTAR":-0.00012882116,"MEAN_MOTION_DOT":-1.944e-5,"MEAN_MOTION_DDOT":0},{"OBJECT_NAME":"CZ-6A DEB","OBJECT_ID":"2024-140PM","EPOCH":"2026-03-09T13:51:31.286016","MEAN_MOTION":14.89023636,"ECCENTRICITY":0.005735,"INCLINATION":89.0306,"RA_OF_ASC_NODE":283.4654,"ARG_OF_PERICENTER":193.2665,"MEAN_ANOMALY":166.7059,"EPHEMERIS_TYPE":0,"CLASSIFICATION_TYPE":"U","NORAD_CAT_ID":61119,"ELEMENT_SET_NO":999,"REV_AT_EPOCH":8334,"BSTAR":0.0034209,"MEAN_MOTION_DOT":0.00033325,"MEAN_MOTION_DDOT":0}]
